1 38662U 12029D   19365.51618686 -.00000022 +00000-0 +54899-4 0 0001
2 38662 100.3542 109.3751 0130348 013.6595 346.7995 13.1904555136231
1 38663U 12029E   19365.34194882 +.00000084 +00000-0 +35094-3 0 0001
2 38663 100.0890 040.3282 0138821 096.7281 264.9648 13.0831122930128
1 38664U 12029F   19365.85147422 +.00000016 +00000-0 +15123-3 0 0001
2 38664 100.0159 039.7621 0137349 044.7393 316.4701 13.1207090630116
1 38665U 71035E   19365.57597843 +.00000015 +00000-0 +14006-4 0 0466
2 38665 074.0483 327.3836 0031624 308.5316 051.3003 14.3693467184237
1 38666U 71035F   19365.63985402 +.00000012 +00000-0 +12839-4 0 0001
2 38666 074.0480 341.5943 0028212 333.4663 026.5044 14.3655136327445
1 38667U 74071E   19364.65694882 +.00000007 +00000-0 +11576-4 0 0486
2 38667 074.0513 335.9165 0020798 009.5025 350.6517 14.3574598487979
1 38670U 07003AJ  19129.09760305 -.00000238 +00000-0 -34069-3 0 0339
2 38670 026.9948 339.1139 7435096 225.2176 042.7629 01.8165899805781
1 38673U 86010H   19365.40925121 +.00000197 +00000-0 +66559-3 0 0001
2 38673 030.4927 122.2041 6736795 219.7820 063.5415 02.8884858105595
1 38674U 06042D   17079.11633712 +.00014242 +00000-0 +22737-3 0 0534
2 38674 039.9145 298.3211 4631029 328.6624 010.5549 06.4002025514391
1 38677U 08012D   19146.21795163 +.00012062 +25483-6 +16092-3 0 0371
2 38677 040.0595 057.6208 4935330 223.9043 312.6207 05.8786435519654
1 38678U 09014D   19365.75020586 +.00503064 +38577-5 +28060-3 0 0558
2 38678 040.0120 030.0550 1555467 045.9915 325.8932 12.7715399823535
1 38679U 09067C   12279.38364435 -.00000095 +00000-0 +10000-3 0 0044
2 38679 012.7716 322.8563 4531779 149.8201 246.4474 01.7328778501571
1 38680U 96021E   12209.23821333 -.00000082 +00000-0 +10000-3 0 0012
2 38680 006.1400 194.1478 3657863 351.6711 003.4595 01.6388610702451
1 38681U 96021F   12277.83609083 -.00000132 +00000-0 +10000-3 0 0060
2 38681 006.2535 188.6271 3723883 002.4210 358.9102 01.6435540000650
1 38682U 79009E   19365.32783151 -.00000121 +00000-0 +00000-0 0 0499
2 38682 009.9264 069.5632 3639408 234.1616 086.2550 01.6852069707096
1 38683U 79009F   19365.21365830 -.00000112 +00000-0 +00000-0 0 0940
2 38683 009.3359 050.7487 3726879 276.6943 043.0906 01.6947662005905
1 38684U 80018E   19365.60414640 -.00000064 +00000-0 +00000-0 0 0001
2 38684 007.2094 176.8311 4451502 029.5436 349.5325 01.7724112404828
1 38685U 80018F   19365.31215379 -.00000062 +00000-0 +00000-0 0 0001
2 38685 007.3781 214.5805 4390695 317.0697 015.9470 01.7631308304800
1 38686U 79101V   13186.32107589 -.00000171 +00000-0 +10000-3 0 0175
2 38686 007.7879 191.4103 4844234 285.2458 027.5659 01.8222897801906
1 38687U 79101W   19364.97239390 -.00000174 +00000-0 +00000-0 0 0001
2 38687 010.5788 032.9838 4752516 224.8195 085.1659 01.8035862004906
1 38688U 79101X   19365.16336052 -.00000115 +00000-0 +00000-0 0 0539
2 38688 009.2648 329.9058 4939412 359.0171 000.1606 01.8059167506320
1 38689U 79101Y   18015.35660510 -.00000073 +00000-0 +00000-0 0 0619
2 38689 009.2210 065.5873 4777973 163.7387 219.2645 01.8104806106402
1 38690U 68081Q   19364.67383277 -.00000311 +00000-0 +00000-0 0 0001
2 38690 005.1150 313.0306 0281901 354.2838 005.5751 00.9933151102704
1 38691U 68081R   19365.71193852 -.00000307 +00000-0 +00000-0 0 0001
2 38691 003.8593 311.0208 0207093 321.2373 037.5439 01.0070874902760
1 38692U 68081S   19364.90365870 -.00000015 +00000-0 +00000-0 0 0001
2 38692 005.1333 313.6760 0345844 325.6465 032.3380 00.9919238501797
1 38693U 68081T   19365.50460325 -.00000049 +00000-0 +00000-0 0 0001
2 38693 002.7968 304.7701 0108587 286.8296 072.3703 01.0282224702436
1 38694U 68081U   19365.46516971 -.00000076 +00000-0 +00000-0 0 0665
2 38694 003.8847 298.2352 0086466 160.3076 200.3191 01.0351070304557
1 38695U 68081V   19365.71322729 -.00000313 +00000-0 +00000-0 0 0001
2 38695 004.7441 314.0726 0478745 309.0440 061.4036 00.9936783003990
1 38696U 68081W   19365.06958356 -.00000045 +00000-0 +00000-0 0 0898
2 38696 004.6724 313.5786 0237935 313.5822 044.6702 00.9949971104351
1 38697U 68081X   19364.63432416 +.00000071 +00000-0 +00000-0 0 0805
2 38697 003.2860 346.6622 0165755 350.2373 009.6194 01.0147168505091
1 38698U 68081Y   19364.82929448 -.00000203 +00000-0 +00000-0 0 0001
2 38698 002.1456 298.0962 0187011 291.3048 067.2548 01.0439914206113
1 38699U 68081Z   19365.57179493 +.00000069 +00000-0 +00000-0 0 0001
2 38699 004.3190 309.0290 0107798 339.0751 203.1284 01.0085196802807
1 38700U 68081AA  19171.37020149 -.00000289 +00000-0 +00000-0 0 0838
2 38700 003.9650 303.6697 0111509 287.1424 071.8865 01.0272658603847
1 38701U 68081AB  18337.26102699 -.00000214 +00000-0 +00000-0 0 0320
2 38701 004.6108 310.5466 0276240 316.3093 041.7227 01.0115252303518
1 38702U 68081AC  19360.85797760 -.00000291 +00000-0 +00000-0 0 0664
2 38702 004.8190 302.4747 0192335 090.3284 272.1064 01.0221552204555
1 38703U 68081AD  19364.77305861 -.00000188 +00000-0 +00000-0 0 0785
2 38703 002.7827 289.9473 0261129 175.5413 185.1528 01.0542200905115
1 38704U 68081AE  19364.76049175 -.00000238 +00000-0 +00000-0 0 0346
2 38704 001.8381 315.5160 0206844 294.7625 063.6690 01.0220215605190
1 38705U 68081AF  19364.89078635 -.00000259 +00000-0 +00000-0 0 0402
2 38705 002.7697 309.0338 0268468 083.6597 279.7756 01.0207027605101
1 38707U 12039A   19365.80495455 +.00000133 +00000-0 +95448-5 0 0286
2 38707 097.4592 281.8227 0001612 081.2852 003.8549 15.1908169141290
1 38708U 12039B   19365.79127579 +.00000272 +00000-0 +15793-4 0 0297
2 38708 097.3880 270.9405 0001263 067.4362 016.7923 15.1988929941287
1 38709U 12039C   19365.83832871 -.00000008 +00000-0 +17210-4 0 0382
2 38709 099.1271 027.8235 0011972 112.8408 247.4029 14.2400752038685
1 38710U 12039D   19365.89228451 +.00002529 +00000-0 +46324-4 0 0001
2 38710 097.6163 018.7314 0004292 077.6673 282.5058 15.5037657241776
1 38711U 12039E   19365.77503524 -.00000007 +00000-0 +17428-4 0 0001
2 38711 099.1234 027.1159 0012466 116.3787 243.8672 14.2428096238689
1 38714U 99025ETF 19365.50681533 +.00001964 +00000-0 +45746-3 0 0001
2 38714 097.9264 274.4239 0215530 302.9889 055.0749 14.4270125131363
1 38715U 99025ETG 19364.57429017 +.00001149 +00000-0 +67130-3 0 0001
2 38715 098.2183 277.6662 0160957 081.4354 280.5016 14.0376261562434
1 38716U 99025ETH 19363.51121505 +.00000446 +00000-0 +50303-3 0 0001
2 38716 098.4544 105.6291 0271834 354.5831 005.2388 13.6039353351039
1 38717U 99025ETJ 19365.36104674 +.00000393 +00000-0 +26126-3 0 0001
2 38717 099.0616 317.0883 0069655 322.7550 191.9836 14.0607126927789
1 38718U 99025ETK 19352.08592506 +.00000713 +00000-0 +63589-3 0 0001
2 38718 098.6383 308.7237 0210182 095.0555 267.4625 13.7783119858766
1 38720U 99025ETM 19365.08138020 +.00001486 +00000-0 +68317-3 0 0001
2 38720 099.1524 097.3887 0057514 264.9831 094.4778 14.2194698133854
1 38721U 99025ETN 19365.44416873 +.00000585 +00000-0 +30682-3 0 0001
2 38721 098.9247 078.3379 0079482 115.7391 245.2014 14.1644873032469
1 38722U 99025ETP 19365.55333898 +.00000195 +00000-0 +87266-4 0 0001
2 38722 099.3463 263.1541 0246991 222.3420 135.8458 14.1997497839395
1 38723U 99025ETQ 19363.33042201 +.00000670 +00000-0 +27052-3 0 0001
2 38723 099.4776 039.3300 0044700 214.6038 145.2231 14.3118841132954
1 38724U 99025ETR 19365.66657898 +.00000682 +00000-0 +52742-3 0 0001
2 38724 098.7457 081.8621 0158583 338.4822 020.9721 13.9032667426270
1 38725U 99025ETS 19365.14521276 +.00000777 +00000-0 +39629-3 0 0001
2 38725 098.8924 077.3394 0045546 066.4712 294.1238 14.1808291942399
1 38726U 99025ETT 19365.84067930 +.00000996 +00000-0 +42864-3 0 0855
2 38726 099.2005 206.7039 0087723 038.1799 322.5549 14.2499194445379
1 38727U 99025ETU 19365.76504819 +.00000012 +00000-0 +36670-4 0 0001
2 38727 098.7137 096.8689 0120137 140.1575 019.6233 13.9397716541488
1 38728U 99025ETV 19365.09141383 +.00000369 +00000-0 +10676-3 0 0001
2 38728 099.2251 095.2099 0109753 082.5411 037.4617 14.4776364234031
1 38729U 99025ETW 19352.16588282 +.00000337 +00000-0 +25073-3 0 0282
2 38729 099.2265 326.3406 0086215 201.6208 158.1307 14.0029801652584
1 38730U 12040A   19365.93802153 +.00000131 +00000-0 +00000-0 0 0343
2 38730 000.1829 266.9941 0004705 064.3141 126.8110 01.0027133302733
1 38732U 94089D   19365.82918104 -.00000000 +00000-0 +20072-4 0 0001
2 38732 098.7134 090.8178 0018479 043.8198 316.4441 14.2059656438511
1 38733U 12041A   19365.73151664 +.00000009 +00000-0 -42999-5 0 0406
2 38733 082.4735 106.1673 0018088 172.9619 187.1718 12.4238054333684
1 38734U 12041B   19365.71639859 -.00000013 +00000-0 -16101-3 0 0788
2 38734 082.4753 102.4922 0016387 183.0528 177.0456 12.4480921133716
1 38735U 12041C   19365.76718578 -.00000044 +00000-0 -39032-3 0 0684
2 38735 082.4772 105.8501 0016186 165.9346 194.2187 12.4257962033690
1 38736U 12041D   19365.71426244 +.00000003 +00000-0 -51959-4 0 0717
2 38736 082.4801 104.8818 0024950 165.0861 195.0962 12.4381304833704
1 38737U 12041E   19365.85371828 +.00000028 +00000-0 +64133-4 0 0001
2 38737 082.4782 337.5972 0225963 029.0228 332.3219 12.8181085134752
1 38740U 12043A   19365.87583537 -.00000019 +00000-0 +00000-0 0 0001
2 38740 000.0088 083.2751 0003555 102.4628 298.0596 01.0027176902709
1 38741U 12043B   19365.79662500 +.00000160 +00000-0 +00000-0 0 0399
2 38741 000.0338 282.2866 0001668 350.8667 144.5714 01.0027312702719
1 38742U 12043C   19365.41134526 +.00000503 +00000-0 +26771-3 0 0001
2 38742 006.0137 004.6099 7161867 334.7233 002.8565 02.4211448406401
1 38744U 12044A   19365.94355505 +.00106052 +88332-5 +74255-3 0 0001
2 38744 049.8675 355.8224 0741070 280.6033 071.2314 14.3723374922984
1 38745U 12044B   19365.84538041 +.00004966 +33634-5 +15051-3 0 0001
2 38745 049.8819 185.7271 2217930 059.3431 320.7388 11.0134603728876
1 38746U 12044C   19365.85486424 +.00003438 +00000-0 +21719-3 0 0001
2 38746 049.6721 202.2050 2405981 169.3999 196.8608 10.5035799826911
